{
    "links": {
        "self": "http://www.neowsapp.com/rest/v1/neo/3653905?api_key=iIulBulltgU6a56xZRHN4H3l9WmuAYTsLGpBGhQ2"
    },
    "id": "3653905",
    "neo_reference_id": "3653905",
    "name": "(2013 WT43)",
    "designation": "2013 WT43",
    "nasa_jpl_url": "http://ssd.jpl.nasa.gov/sbdb.cgi?sstr=3653905",
    "absolute_magnitude_h": 22.5,
    "estimated_diameter": {
        "kilometers": {
            "estimated_diameter_min": 0.0840533402,
            "estimated_diameter_max": 0.1879489824
        },
        "meters": {
            "estimated_diameter_min": 84.0533402073,
            "estimated_diameter_max": 187.9489824394
        },
        "miles": {
            "estimated_diameter_min": 0.0522283081,
            "estimated_diameter_max": 0.1167860472
        },
        "feet": {
            "estimated_diameter_min": 275.7655606856,
            "estimated_diameter_max": 616.6305395464
        }
    },
    "is_potentially_hazardous_asteroid": false,
    "close_approach_data": [
        {
            "close_approach_date": "2013-09-02",
            "close_approach_date_full": "2013-Sep-02 06:43",
            "epoch_date_close_approach": 1378104180000,
            "relative_velocity": {
                "kilometers_per_second": "22.5310801493",
                "kilometers_per_hour": "81111.8885374458",
                "miles_per_hour": "50399.7731859479"
            },
            "miss_distance": {
                "astronomical": "0.0966352797",
                "lunar": "37.5911238033",
                "kilometers": "14456432.009974239",
                "miles": "8982810.3125489382"
            },
            "orbiting_body": "Venus"
        },
        {
            "close_approach_date": "2013-11-13",
            "close_approach_date_full": "2013-Nov-13 11:17",
            "epoch_date_close_approach": 1384341420000,
            "relative_velocity": {
                "kilometers_per_second": "23.4654723526",
                "kilometers_per_hour": "84475.7004695285",
                "miles_per_hour": "52489.9151056356"
            },
            "miss_distance": {
                "astronomical": "0.0443250485",
                "lunar": "17.2424438665",
                "kilometers": "6630932.843246695",
                "miles": "4120270.609306591"
            },
            "orbiting_body": "Earth"
        },
        {
            "close_approach_date": "2015-04-08",
            "close_approach_date_full": "2015-Apr-08 22:58",
            "epoch_date_close_approach": 1428533880000,
            "relative_velocity": {
                "kilometers_per_second": "5.970939682",
                "kilometers_per_hour": "21495.38285515",
                "miles_per_hour": "13356.3949746347"
            },
            "miss_distance": {
                "astronomical": "1.945150751",
                "lunar": "756.663642139",
                "kilometers": "290990409.17850037",
                "miles": "180813055.850710306"
            },
            "orbiting_body": "Juptr"
        }
    ],
    "orbital_data": {
        "orbit_id": "9",
        "orbit_determination_date": "2017-04-06 08:43:34",
        "first_observation_date": "2013-11-26",
        "last_observation_date": "2013-12-07",
        "data_arc_in_days": 11,
        "observations_used": 42,
        "orbit_uncertainty": "8",
        "minimum_orbit_intersection": ".0180555",
        "jupiter_tisserand_invariant": "3.072",
        "epoch_osculation": "2456627.5",
        "eccentricity": ".7476212769632424",
        "semi_major_axis": "2.34648996171452",
        "inclination": "16.63263255444043",
        "ascending_node_longitude": "239.4147889670847",
        "orbital_period": "1312.884369351436",
        "perihelion_distance": ".5922041401560807",
        "perihelion_argument": "84.49668606365057",
        "aphelion_distance": "4.100775783272959",
        "perihelion_time": "2456564.354141115245",
        "mean_anomaly": "17.31493628013992",
        "mean_motion": ".2742054124521566",
        "equinox": "J2000",
        "orbit_class": {
            "orbit_class_type": "APO",
            "orbit_class_description": "Near-Earth asteroid orbits which cross the Earth’s orbit similar to that of 1862 Apollo",
            "orbit_class_range": "a (semi-major axis) > 1.0 AU; q (perihelion) < 1.017 AU"
        }
    },
    "is_sentry_object": false
}